NORAD_CAT_ID,OBJECT_NAME,OBJECT_TYPE,EPOCH,MEAN_MOTION,ECCENTRICITY,INCLINATION,RA_OF_ASC_NODE,ARG_OF_PERICENTER,MEAN_ANOMALY,BSTAR,MEAN_MOTION_DOT,MEAN_MOTION_DDOT,TLE_LINE0,TLE_LINE1,TLE_LINE2,SEMIMAJOR_AXIS,PERIOD,APOGEE,PERIGEE,DECAYED
49749,STARLINK-3250,PAYLOAD,2022-09-20 23:49:50,15.08842874,0.0001788,53.2173,71.0522,48.4267,311.6878,0.00010941,1.454e-05,0.0,0 STARLINK-3250,1 49749U 21115AB  22263.99294612  .00001454  00000-0  10941-3 0  9992,2 49749  53.2173  71.0522 0001788  48.4267 311.6878 15.08842874 45569,6917.872,95.437,540.974,538.5,0.0
49749,STARLINK-3250,PAYLOAD,2022-09-21 10:57:35,15.0875922,0.0001867,53.2172,68.9707,65.9385,294.1802,0.0012899,0.00020255,0.0,0 STARLINK-3250,1 49749U 21115AB  22264.45666057  .00020255  00000-0  12899-2 0  9993,2 49749  53.2172  68.9707 0001867  65.9385 294.1802 15.08759220 45633,6918.127,95.443,541.284,538.701,0.0
49749,STARLINK-3250,PAYLOAD,2022-09-21 14:08:19,15.08813275,0.0001613,53.2171,68.3755,53.0891,307.0249,0.00042135,6.419e-05,0.0,0 STARLINK-3250,1 49749U 21115AB  22264.58911817  .00006419  00000-0  42135-3 0  9997,2 49749  53.2171  68.3755 0001613  53.0891 307.0249 15.08813275 45650,6917.962,95.439,540.943,538.711,0.0
49749,STARLINK-3250,PAYLOAD,2022-09-22 13:59:05,15.08844738,0.0001994,53.2164,63.9158,52.2085,307.9087,5.5049e-05,5.88e-06,0.0,0 STARLINK-3250,1 49749U 21115AB  22265.58270737  .00000588  00000-0  55049-4 0  9997,2 49749  53.2164  63.9158 0001994  52.2085 307.9087 15.08844738 44698,6917.866,95.437,541.11,538.351,0.0
49749,STARLINK-3250,PAYLOAD,2022-09-22 17:09:52,15.08843305,0.000184,53.2171,63.3207,50.1428,309.9726,2.2757e-05,7.4e-07,0.0,0 STARLINK-3250,1 49749U 21115AB  22265.71518861  .00000074  00000-0  22757-4 0  9995,2 49749  53.2171  63.3207 0001840  50.1428 309.9726 15.08843305 45820,6917.87,95.437,541.008,538.462,0.0
49749,STARLINK-3250,PAYLOAD,2022-09-23 13:49:53,15.08837157,0.0001851,53.2171,59.4538,52.4778,307.6382,2.6768e-05,1.38e-06,0.0,0 STARLINK-3250,1 49749U 21115AB  22266.57631193  .00000138  00000-0  26768-4 0  9991,2 49749  53.2171  59.4538 0001851  52.4778 307.6382 15.08837157 44840,6917.889,95.438,541.035,538.474,0.0
49749,STARLINK-3250,PAYLOAD,2022-09-23 17:00:39,15.08841336,0.0001928,53.218,58.8605,51.0822,309.0342,6.7717e-05,7.9e-06,0.0,0 STARLINK-3250,1 49749U 21115AB  22266.70878855  .00000790  00000-0  67717-4 0  9997,2 49749  53.2180  58.8605 0001928  51.0822 309.0342 15.08841336 44866,6917.876,95.437,541.075,538.408,0.0
49749,STARLINK-3250,PAYLOAD,2022-09-24 13:40:40,15.08834227,0.000194,53.2186,54.9951,52.9423,307.1746,4.8417e-05,4.82e-06,0.0,0 STARLINK-3250,1 49749U 21115AB  22267.56991424  .00000482  00000-0  48417-4 0  9994,2 49749  53.2186  54.9951 0001940  52.9423 307.1746 15.08834227 46101,6917.898,95.438,541.105,538.421,0.0
49749,STARLINK-3250,PAYLOAD,2022-09-24 16:51:27,15.08827795,0.0001933,53.219,54.4006,50.1683,309.9479,-4.2276e-05,-9.61e-06,0.0,0 STARLINK-3250,1 49749U 21115AB  22267.70240178 -.00000961  00000-0 -42276-4 0  9994,2 49749  53.2190  54.4006 0001933  50.1683 309.9479 15.08827795 46129,6917.918,95.438,541.12,538.445,0.0
49749,STARLINK-3250,PAYLOAD,2022-09-24 21:37:36,15.08829642,0.0001907,53.2182,53.5075,48.7669,311.3487,-2.0697e-05,-6.17e-06,0.0,0 STARLINK-3250,1 49749U 21115AB  22267.90112062 -.00000617  00000-0 -20697-4 0  9997,2 49749  53.2182  53.5075 0001907  48.7669 311.3487 15.08829642 45043,6917.912,95.438,541.096,538.458,0.0
49749,STARLINK-3250,PAYLOAD,2022-09-25 15:06:50,15.08840333,0.000193,53.2177,50.2367,49.5889,310.5271,2.3607e-05,8.8e-07,0.0,0 STARLINK-3250,1 49749U 21115AB  22268.62975610  .00000088  00000-0  23607-4 0  9997,2 49749  53.2177  50.2367 0001930  49.5889 310.5271 15.08840333 46261,6917.879,95.438,541.08,538.409,0.0
49749,STARLINK-3250,PAYLOAD,2022-09-27 11:37:38,15.08841209,0.0001951,53.2178,41.9108,50.4095,309.7069,4.8706e-05,4.87e-06,0.0,0 STARLINK-3250,1 49749U 21115AB  22270.48447597  .00000487  00000-0  48706-4 0  9992,2 49749  53.2178  41.9108 0001951  50.4095 309.7069 15.08841209 46544,6917.877,95.437,541.091,538.392,0.0
49749,STARLINK-3250,PAYLOAD,2022-09-27 17:59:11,15.08841517,0.0001978,53.2182,40.7217,50.8889,309.2278,5.8854e-05,6.49e-06,0.0,0 STARLINK-3250,1 49749U 21115AB  22270.74943608  .00000649  00000-0  58854-4 0  9990,2 49749  53.2182  40.7217 0001978  50.8889 309.2278 15.08841517 45471,6917.876,95.437,541.109,538.372,0.0
49749,STARLINK-3250,PAYLOAD,2022-09-28 14:39:12,15.08896393,0.000183,53.2202,36.8581,48.8319,311.2831,-0.00043309,-7.185e-05,0.0,0 STARLINK-3250,1 49749U 21115AB  22271.61056409 -.00007185  00000-0 -43309-3 0  9993,2 49749  53.2202  36.8581 0001830  48.8319 311.2831 15.08896393 46714,6917.708,95.434,540.839,538.307,0.0
49749,STARLINK-3250,PAYLOAD,2022-09-28 21:00:44,15.08851097,0.0001979,53.2168,35.6667,67.4629,292.6572,-6.783e-05,-1.368e-05,0.0,0 STARLINK-3250,1 49749U 21115AB  22271.87551572 -.00001368  00000-0 -67830-4 0  9995,2 49749  53.2168  35.6667 0001979  67.4629 292.6572 15.08851097 46752,6917.846,95.437,541.081,538.342,0.0
49749,STARLINK-3250,PAYLOAD,2022-09-29 14:29:58,15.08852843,0.0001651,53.2187,32.3934,44.7859,315.3266,6.5655e-05,7.57e-06,0.0,0 STARLINK-3250,1 49749U 21115AB  22272.60414565  .00000757  00000-0  65655-4 0  9999,2 49749  53.2187  32.3934 0001651  44.7859 315.3266 15.08852843 45756,6917.841,95.437,540.848,538.564,0.0
49749,STARLINK-3250,PAYLOAD,2022-09-29 19:16:07,15.08854085,0.0001694,53.2185,31.5015,44.8389,315.2739,8.2723e-05,1.029e-05,0.0,0 STARLINK-3250,1 49749U 21115AB  22272.80286359  .00001029  00000-0  82723-4 0  9997,2 49749  53.2185  31.5015 0001694  44.8389 315.2739 15.08854085 45788,6917.837,95.437,540.874,538.53,0.0
49749,STARLINK-3250,PAYLOAD,2022-09-30 01:37:40,15.0884433,0.0001804,53.2177,30.3122,46.6853,313.4289,-8.6134e-06,-4.25e-06,0.0,0 STARLINK-3250,1 49749U 21115AB  22273.06783128 -.00000425  00000-0 -86134-5 0  9994,2 49749  53.2177  30.3122 0001804  46.6853 313.4289 15.08844330 46934,6917.867,95.437,540.98,538.484,0.0
49749,STARLINK-3250,PAYLOAD,2022-09-30 11:09:59,15.08839284,0.000185,53.2173,28.528,52.2502,307.8658,3.4853e-05,2.67e-06,0.0,0 STARLINK-3250,1 49749U 21115AB  22273.46527390  .00000267  00000-0  34853-4 0  9997,2 49749  53.2173  28.5280 0001850  52.2502 307.8658 15.08839284 45881,6917.883,95.438,541.027,538.468,0.0
49749,STARLINK-3250,PAYLOAD,2022-09-30 17:31:32,15.08840089,0.0001843,53.2174,27.3381,55.5514,304.5652,3.1771e-05,2.18e-06,0.0,0 STARLINK-3250,1 49749U 21115AB  22273.73023284  .00000218  00000-0  31771-4 0  9992,2 49749  53.2174  27.3381 0001843  55.5514 304.5652 15.08840089 45920,6917.88,95.438,541.02,538.47,0.0
49749,STARLINK-3250,PAYLOAD,2022-10-01 12:36:08,15.08863102,0.0002101,53.2175,23.7715,59.2633,300.8566,-0.00011221,-2.075e-05,0.0,0 STARLINK-3250,1 49749U 21115AB  22274.52510073 -.00002075  00000-0 -11221-3 0  9999,2 49749  53.2175  23.7715 0002101  59.2633 300.8566 15.08863102 47154,6917.81,95.436,541.128,538.221,0.0
49749,STARLINK-3250,PAYLOAD,2022-10-01 18:57:41,15.08846542,0.0002144,53.2178,22.5827,48.8219,311.2958,-8.6807e-06,-4.26e-06,0.0,0 STARLINK-3250,1 49749U 21115AB  22274.79006689 -.00000426  00000-0 -86807-5 0  9993,2 49749  53.2178  22.5827 0002144  48.8219 311.2958 15.08846542 46080,6917.86,95.437,541.209,538.242,0.0
49749,STARLINK-3250,PAYLOAD,2022-10-02 12:26:57,15.08825534,0.0001855,53.2189,19.3111,49.199,310.9163,-1.8724e-05,-5.86e-06,0.0,0 STARLINK-3250,1 49749U 21115AB  22275.51872351 -.00000586  00000-0 -18724-4 0  9990,2 49749  53.2189  19.3111 0001855  49.1990 310.9163 15.08825534 47308,6917.925,95.438,541.073,538.506,0.0
49749,STARLINK-3250,PAYLOAD,2022-10-02 15:37:44,15.08826687,0.0001967,53.2187,18.7172,40.5085,319.6053,-8.7503e-05,-1.68e-05,0.0,0 STARLINK-3250,1 49749U 21115AB  22275.65120544 -.00001680  00000-0 -87503-4 0  9992,2 49749  53.2187  18.7172 0001967  40.5085 319.6053 15.08826687 46213,6917.921,95.438,541.147,538.425,0.0
49749,STARLINK-3250,PAYLOAD,2022-10-02 23:34:39,15.08837062,0.0001941,53.2185,17.2296,39.0745,321.0387,-1.5343e-05,-5.32e-06,0.0,0 STARLINK-3250,1 49749U 21115AB  22275.98239847 -.00000532  00000-0 -15343-4 0  9993,2 49749  53.2185  17.2296 0001941  39.0745 321.0387 15.08837062 47374,6917.889,95.438,541.097,538.412,0.0
49749,STARLINK-3250,PAYLOAD,2022-10-03 10:42:20,15.08845885,0.0002162,53.2176,15.1438,29.0176,331.0936,6.0053e-05,6.68e-06,0.0,0 STARLINK-3250,1 49749U 21115AB  22276.44607153  .00000668  00000-0  60053-4 0  9990,2 49749  53.2176  15.1438 0002162  29.0176 331.0936 15.08845885 47443,6917.862,95.437,541.223,538.232,0.0
49749,STARLINK-3250,PAYLOAD,2022-10-03 13:53:06,15.08857076,0.0001959,53.2182,14.5532,38.6285,321.4847,0.00017847,2.555e-05,0.0,0 STARLINK-3250,1 49749U 21115AB  22276.57854261  .00002555  00000-0  17847-3 0  9997,2 49749  53.2182  14.5532 0001959  38.6285 321.4847 15.08857076 46356,6917.828,95.436,541.048,538.338,0.0
49749,STARLINK-3250,PAYLOAD,2022-10-03 17:03:53,15.08854236,0.0002077,53.2168,13.9584,33.8067,326.3057,0.00044699,6.836e-05,0.0,0 STARLINK-3250,1 49749U 21115AB  22276.71103042  .00006836  00000-0  44699-3 0  9998,2 49749  53.2168  13.9584 0002077  33.8067 326.3057 15.08854236 46371,6917.837,95.437,541.139,538.265,0.0
49749,STARLINK-3250,PAYLOAD,2022-10-04 12:08:30,15.08845921,0.0002106,53.2181,10.3913,36.6745,323.4391,0.00023516,3.457e-05,0.0,0 STARLINK-3250,1 49749U 21115AB  22277.50591072  .00003457  00000-0  23516-3 0  9991,2 49749  53.2181  10.3913 0002106  36.6745 323.4391 15.08845921 46493,6917.862,95.437,541.184,538.27,0.0
49749,STARLINK-3250,PAYLOAD,2022-10-04 13:43:53,15.08844017,0.0002112,53.2185,10.0942,37.714,322.4,0.00027242,4.051e-05,0.0,0 STARLINK-3250,1 49749U 21115AB  22277.57215165  .00004051  00000-0  27242-3 0  9995,2 49749  53.2185  10.0942 0002112  37.7140 322.4000 15.08844017 47610,6917.868,95.437,541.194,538.272,0.0
